NORAD_CAT_ID,OBJECT_NAME,OBJECT_TYPE,EPOCH,MEAN_MOTION,ECCENTRICITY,INCLINATION,RA_OF_ASC_NODE,ARG_OF_PERICENTER,MEAN_ANOMALY,BSTAR,MEAN_MOTION_DOT,MEAN_MOTION_DDOT,TLE_LINE0,TLE_LINE1,TLE_LINE2,SEMIMAJOR_AXIS,PERIOD,APOGEE,PERIGEE,DECAYED
53778.0,STARLINK-4709,PAYLOAD,2024-06-14 12:37:10,15.08844624,0.0001051,53.2147,241.2321,100.9417,259.1693,0.00030372,4.55e-05,0.0,0 STARLINK-4709,1 53778U 22111F   24166.52581023  .00004550  00000-0  30372-3 0  9994,2 53778  53.2147 241.2321 0001051 100.9417 259.1693 15.08844624 98046,6917.866,95.437,540.458,539.004,0.0
53778.0,STARLINK-4709,PAYLOAD,2024-06-15 12:27:57,15.08845944,0.0001054,53.2148,236.7694,98.0766,262.0346,0.00060859,9.413e-05,0.0,0 STARLINK-4709,1 53778U 22111F   24167.51941375  .00009413  00000-0  60859-3 0  9990,2 53778  53.2148 236.7694 0001054  98.0766 262.0346 15.08845944 98196,6917.862,95.437,540.456,538.998,0.0
53778.0,STARLINK-4709,PAYLOAD,2024-06-15 22:00:15,15.08853654,0.000106,53.2149,234.9854,96.1388,263.9725,0.00063968,9.911e-05,0.0,0 STARLINK-4709,1 53778U 22111F   24167.91685144  .00009911  00000-0  63968-3 0  9990,2 53778  53.2149 234.9854 0001060  96.1388 263.9725 15.08853654 98256,6917.839,95.437,540.437,538.97,0.0
53778.0,STARLINK-4709,PAYLOAD,2024-06-16 13:54:07,15.08845182,0.0001118,53.2144,232.0105,119.4417,240.6687,0.00021474,3.132e-05,0.0,0 STARLINK-4709,1 53778U 22111F   24168.57925116  .00003132  00000-0  21474-3 0  9994,2 53778  53.2144 232.0105 0001118 119.4417 240.6687 15.08845182 98352,6917.865,95.437,540.503,538.956,0.0
53778.0,STARLINK-4709,PAYLOAD,2024-06-16 21:51:02,15.08849337,0.0001124,53.2148,230.5242,114.9593,245.1516,0.00024424,3.602e-05,0.0,0 STARLINK-4709,1 53778U 22111F   24168.91044875  .00003602  00000-0  24424-3 0  9996,2 53778  53.2148 230.5242 0001124 114.9593 245.1516 15.08849337 98406,6917.852,95.437,540.494,538.939,0.0
53778.0,STARLINK-4709,PAYLOAD,2024-06-17 13:44:54,15.08836562,0.0001337,53.2179,227.5532,100.6295,259.4848,-4.4285e-05,-9.93e-06,0.0,0 STARLINK-4709,1 53778U 22111F   24169.57285664 -.00000993  00000-0 -44285-4 0  9992,2 53778  53.2179 227.5532 0001337 100.6295 259.4848 15.08836562 98508,6917.891,95.438,540.681,538.831,0.0
53778.0,STARLINK-4709,PAYLOAD,2024-06-18 10:24:55,15.08842607,0.0001266,53.2166,223.6886,89.8796,270.2341,0.00011589,1.557e-05,0.0,0 STARLINK-4709,1 53778U 22111F   24170.43397373  .00001557  00000-0  11589-3 0  9995,2 53778  53.2166 223.6886 0001266  89.8796 270.2341 15.08842607 98638,6917.872,95.437,540.613,538.862,0.0
53778.0,STARLINK-4709,PAYLOAD,2024-06-19 10:15:42,15.088351,0.0001235,53.2157,219.2279,94.1875,265.9258,8.6476e-05,1.088e-05,0.0,0 STARLINK-4709,1 53778U 22111F   24171.42757868  .00001088  00000-0  86476-4 0  9991,2 53778  53.2157 219.2279 0001235  94.1875 265.9258 15.08835100 97972,6917.895,95.438,540.615,538.906,0.0
53778.0,STARLINK-4709,PAYLOAD,2024-06-19 13:26:28,15.08838435,0.0001196,53.2151,218.632,94.0682,266.0446,9.7603e-05,1.266e-05,0.0,0 STARLINK-4709,1 53778U 22111F   24171.56005688  .00001266  00000-0  97603-4 0  9994,2 53778  53.2151 218.6320 0001196  94.0682 266.0446 15.08838435 98805,6917.885,95.438,540.578,538.923,0.0
53778.0,STARLINK-4709,PAYLOAD,2024-06-20 13:17:16,15.08837481,0.0001148,53.2155,214.171,86.3279,273.7844,3.243e-05,2.28e-06,0.0,0 STARLINK-4709,1 53778U 22111F   24172.55366140  .00000228  00000-0  32430-4 0  9991,2 53778  53.2155 214.1710 0001148  86.3279 273.7844 15.08837481 98959,6917.888,95.438,540.547,538.959,0.0
53778.0,STARLINK-4709,PAYLOAD,2024-06-20 19:38:48,15.08839794,0.0001187,53.2161,212.9818,85.946,274.1668,7.4612e-05,9e-06,0.0,0 STARLINK-4709,1 53778U 22111F   24172.81861909  .00000900  00000-0  74612-4 0  9998,2 53778  53.2161 212.9818 0001187  85.9460 274.1668 15.08839794 98184,6917.881,95.438,540.567,538.925,0.0
53778.0,STARLINK-4709,PAYLOAD,2024-06-21 11:32:40,15.08837856,0.00013,53.2165,210.0095,92.0221,268.092,0.00010121,1.323e-05,0.0,0 STARLINK-4709,1 53778U 22111F   24173.48102171  .00001323  00000-0  10121-3 0  9995,2 53778  53.2165 210.0095 0001300  92.0221 268.0920 15.08837856 99096,6917.887,95.438,540.651,538.853,0.0
53778.0,STARLINK-4709,PAYLOAD,2024-06-22 09:48:04,15.08838412,0.0001293,53.2166,205.8464,91.3102,268.8039,5.7189e-05,6.22e-06,0.0,0 STARLINK-4709,1 53778U 22111F   24174.40838388  .00000622  00000-0  57189-4 0  9991,2 53778  53.2166 205.8464 0001293  91.3102 268.8039 15.08838412 98424,6917.885,95.438,540.645,538.856,0.0
53778.0,STARLINK-4709,PAYLOAD,2024-06-23 08:03:27,15.08843736,0.0001238,53.2161,201.6822,92.264,267.8494,8.3421e-05,1.04e-05,0.0,0 STARLINK-4709,1 53778U 22111F   24175.33573952  .00001040  00000-0  83421-4 0  9990,2 53778  53.2161 201.6822 0001238  92.2640 267.8494 15.08843736 99371,6917.869,95.437,540.59,538.878,0.0
53778.0,STARLINK-4709,PAYLOAD,2024-06-24 01:32:42,15.0884423,0.0001252,53.216,198.4115,87.1346,272.9789,9.7946e-05,1.271e-05,0.0,0 STARLINK-4709,1 53778U 22111F   24176.06437741  .00001271  00000-0  97946-4 0  9999,2 53778  53.2160 198.4115 0001252  87.1346 272.9789 15.08844230 98676,6917.867,95.437,540.599,538.866,0.0
53778.0,STARLINK-4709,PAYLOAD,2024-06-24 07:54:14,15.08843533,0.0001217,53.2158,197.2212,91.6514,268.4618,8.6656e-05,1.092e-05,0.0,0 STARLINK-4709,1 53778U 22111F   24176.32933748  .00001092  00000-0  86656-4 0  9993,2 53778  53.2158 197.2212 0001217  91.6514 268.4618 15.08843533 99527,6917.87,95.437,540.576,538.893,0.0
53778.0,STARLINK-4709,PAYLOAD,2024-06-25 04:34:15,15.08841145,0.000132,53.216,193.3557,93.6151,266.4992,1.6327e-05,-2.8e-07,0.0,0 STARLINK-4709,1 53778U 22111F   24177.19046019 -.00000028  00000-0  16327-4 0  9992,2 53778  53.2160 193.3557 0001320  93.6151 266.4992 15.08841145 98847,6917.877,95.437,540.655,538.829,0.0
53778.0,STARLINK-4709,PAYLOAD,2024-06-25 07:45:02,15.08840472,0.0001282,53.2158,192.7607,96.3177,263.7961,7.4194e-06,-1.7e-06,0.0,0 STARLINK-4709,1 53778U 22111F   24177.32294025 -.00000170  00000-0  74194-5 0  9994,2 53778  53.2158 192.7607 0001282  96.3177 263.7961 15.08840472 99678,6917.879,95.438,540.631,538.857,0.0
53778.0,STARLINK-4709,PAYLOAD,2024-06-26 06:00:25,15.08841429,0.0001266,53.2147,188.599,81.9089,278.2047,6.8113e-05,7.96e-06,0.0,0 STARLINK-4709,1 53778U 22111F   24178.25029786  .00000796  00000-0  68113-4 0  9993,2 53778  53.2147 188.5990 0001266  81.9089 278.2047 15.08841429 99004,6917.876,95.437,540.617,538.865,0.0
53778.0,STARLINK-4709,PAYLOAD,2024-06-27 07:26:36,15.08837861,0.0001287,53.2144,183.8366,65.6365,294.4761,5.169e-05,5.35e-06,0.0,0 STARLINK-4709,1 53778U 22111F   24179.31014176  .00000535  00000-0  51690-4 0  9991,2 53778  53.2144 183.8366 0001287  65.6365 294.4761 15.08837861 99160,6917.887,95.438,540.642,538.862,0.0
53778.0,STARLINK-4709,PAYLOAD,2024-06-27 16:58:55,15.08837535,0.0001307,53.2145,182.0529,67.2315,292.8815,3.8763e-05,3.29e-06,0.0,0 STARLINK-4709,1 53778U 22111F   24179.70758311  .00000329  00000-0  38763-4 0  9997,2 53778  53.2145 182.0529 0001307  67.2315 292.8815 15.08837535100038,6917.888,95.438,540.657,538.849,0.0
53778.0,STARLINK-4709,PAYLOAD,2024-06-28 07:17:23,15.08838537,0.0001321,53.215,179.3794,85.977,274.1373,3.092e-05,2.04e-06,0.0,0 STARLINK-4709,1 53778U 22111F   24180.30374393  .00000204  00000-0  30920-4 0  9998,2 53778  53.2150 179.3794 0001321  85.9770 274.1373 15.08838537100120,6917.885,95.438,540.664,538.836,0.0
53778.0,STARLINK-4709,PAYLOAD,2024-06-29 05:32:47,15.08834744,0.0001347,53.2153,175.2165,87.0523,273.0623,7.8432e-05,9.6e-06,0.0,0 STARLINK-4709,1 53778U 22111F   24181.23110764  .00000960  00000-0  78432-4 0  9990,2 53778  53.2153 175.2165 0001347  87.0523 273.0623 15.08834744 99452,6917.896,95.438,540.693,538.83,0.0
53778.0,STARLINK-4709,PAYLOAD,2024-06-29 07:08:10,15.08834885,0.0001348,53.2152,174.9191,87.5084,272.6062,7.8145e-05,9.56e-06,0.0,0 STARLINK-4709,1 53778U 22111F   24181.29734779  .00000956  00000-0  78145-4 0  9990,2 53778  53.2152 174.9191 0001348  87.5084 272.6062 15.08834885100275,6917.896,95.438,540.694,538.828,0.0
53778.0,STARLINK-4709,PAYLOAD,2024-06-29 16:40:29,15.08839017,0.000135,53.2152,173.1351,88.5664,271.5483,9.6155e-05,1.243e-05,0.0,0 STARLINK-4709,1 53778U 22111F   24181.69478592  .00001243  00000-0  96155-4 0  9993,2 53778  53.2152 173.1351 0001350  88.5664 271.5483 15.08839017100336,6917.883,95.438,540.682,538.814,0.0
53778.0,STARLINK-4709,PAYLOAD,2024-06-30 06:58:57,15.08839917,0.0001355,53.2152,170.4586,89.4902,270.6245,8.4053e-05,1.05e-05,0.0,0 STARLINK-4709,1 53778U 22111F   24182.29094657  .00001050  00000-0  84053-4 0  9996,2 53778  53.2152 170.4586 0001355  89.4902 270.6245 15.08839917 99619,6917.881,95.438,540.683,538.808,0.0
53778.0,STARLINK-4709,PAYLOAD,2024-06-30 22:52:48,15.08842517,0.0001379,53.2153,167.4846,89.6437,270.4713,9.7327e-05,1.261e-05,0.0,0 STARLINK-4709,1 53778U 22111F   24182.95334433  .00001261  00000-0  97327-4 0  9990,2 53778  53.2153 167.4846 0001379  89.6437 270.4713 15.08842517100527,6917.873,95.437,540.692,538.784,0.0
53778.0,STARLINK-4709,PAYLOAD,2024-07-01 05:14:21,15.08840781,0.0001379,53.2155,166.2948,90.6626,269.4524,7.6188e-05,9.25e-06,0.0,0 STARLINK-4709,1 53778U 22111F   24183.21830608  .00000925  00000-0  76188-4 0  9993,2 53778  53.2155 166.2948 0001379  90.6626 269.4524 15.08840781100564,6917.878,95.438,540.697,538.789,0.0
53778.0,STARLINK-4709,PAYLOAD,2024-07-01 16:22:03,15.08846285,0.0001399,53.2158,164.2133,90.3843,269.7309,0.00010059,1.314e-05,0.0,0 STARLINK-4709,1 53778U 22111F   24183.68198094  .00001314  00000-0  10059-3 0  9997,2 53778  53.2158 164.2133 0001399  90.3843 269.7309 15.08846285 99826,6917.861,95.437,540.694,538.758,0.0
53778.0,STARLINK-4709,PAYLOAD,2024-07-02 05:05:08,15.08837048,0.0001319,53.2168,161.8332,99.0753,261.0388,6.1606e-05,6.93e-06,0.0,0 STARLINK-4709,1 53778U 22111F   24184.21190751  .00000693  00000-0  61606-4 0  9993,2 53778  53.2168 161.8332 0001319  99.0753 261.0388 15.08837048 99907,6917.889,95.438,540.667,538.842,0.0
